0 ESSA 1 (OT-3)
1 01982U 66008A   13282.41441317  .00000194  00000-0  63546-4 0  4459
2 01982 097.9382 204.7459 0081589 340.4582 019.3489 14.46303494508553
0 ESSA 1 (OT-3)
1 01982U 66008A   13283.65968927  .00000183  00000-0  60501-4 0  4464
2 01982 097.9384 205.9127 0081524 336.5891 023.1598 14.46304194508730
0 ESSA 1 (OT-3)
1 01982U 66008A   13285.80433056  .00000179  00000-0  59660-4 0  4484
2 01982 097.9388 207.9222 0081390 329.9339 029.7194 14.46304991509040
0 ESSA 1 (OT-3)
1 01982U 66008A   13286.98042400  .00000210  00000-0  67923-4 0  4491
2 01982 097.9391 209.0241 0081298 326.3014 033.3025 14.46305613509211
0 ESSA 1 (OT-3)
1 01982U 66008A   13288.36406317  .00000300  00000-0  91947-4 0  4501
2 01982 097.9392 210.3206 0081248 321.9799 037.5677 14.46306742509419
0 ESSA 1 (OT-3)
1 01982U 66008A   13289.40179209  .00000222  00000-0  71089-4 0  4513
2 01982 097.9393 211.2931 0081210 318.7325 040.7748 14.46307657509560
0 ESSA 1 (OT-3)
1 01982U 66008A   13290.43952091  .00000256  00000-0  80328-4 0  4520
2 01982 097.9394 212.2657 0081164 315.5020 043.9673 14.46308193509717
0 ESSA 1 (OT-3)
1 01982U 66008A   13291.68479520  .00000280  00000-0  86775-4 0  4539
2 01982 097.9393 213.4329 0081110 311.6150 047.8113 14.46308770509899
0 ESSA 1 (OT-3)
1 01982U 66008A   13292.79170586  .00000307  00000-0  94054-4 0  4542
2 01982 097.9392 214.4704 0081065 308.1666 051.2243 14.46309613510058
0 ESSA 1 (OT-3)
1 01982U 66008A   13294.10616227  .00000278  00000-0  86269-4 0  4553
2 01982 097.9392 215.7023 0081004 304.0655 055.2867 14.46310964510240
0 ESSA 1 (OT-3)
1 01982U 66008A   13295.42061834  .00000284  00000-0  87830-4 0  4560
2 01982 097.9392 216.9343 0080964 299.9679 059.3494 14.46312039510437
